#aV2006  9 27  0  0   .00000000      96 DD+AD WGS84 FIT  NGA
## 1394 259200.00000000   900.00000000 54005  .0000000000000
+   29     1  2  3  4  5  6  7  8  9 10 11 13 14 15 16 17 18
+         19 20 21 22 23 24 25 26 27 28 29 30  0  0  0  0  0
+          0  0  0  0  0  0  0  0  0  0  0  0  0  0  0  0  0
+          0  0  0  0  0  0  0  0  0  0  0  0  0  0  0  0  0
+          0  0  0  0  0  0  0  0  0  0  0  0  0  0  0  0  0
++         0  0  0  0  0  0  0  0  0  0  0  0  0  0  0  0  0
++         0  0  0  0  0  0  0  0  0  0  0  0  0  0  0  0  0
++         0  0  0  0  0  0  0  0  0  0  0  0  0  0  0  0  0
++         0  0  0  0  0  0  0  0  0  0  0  0  0  0  0  0  0
++         0  0  0  0  0  0  0  0  0  0  0  0  0  0  0  0  0
%c cc cc ccc ccc cccc cccc cccc cccc ccccc ccccc ccccc ccccc
%c cc cc ccc ccc cccc cccc cccc cccc ccccc ccccc ccccc ccccc
%f  0.0000000  0.000000000  0.00000000000  0.000000000000000
%f  0.0000000  0.000000000  0.00000000000  0.000000000000000
%i    0    0    0    0      0      0      0      0         0
%i    0    0    0    0      0      0      0      0         0
/*      NGA, ST. LOUIS,MO.                                  
/*   EPHEMERIS COMPUTED FROM  3 DAYS OF DATA                
/* CCCCCCCCCCCCCCCCCCCCCCCCCCCCCCCCCCCCCCCCCCCCCCCCCCCCCCCCC
/* CCCCCCCCCCCCCCCCCCCCCCCCCCCCCCCCCCCCCCCCCCCCCCCCCCCCCCCCC
*  2006  9 27 12  0   .00000000                                                 
P  1 -16432.096801 -14544.832488  15208.866900     79.130179                    
V  1  18607.304231   3433.599459  23634.339950       .021541                    
P  2  13151.153129  21929.870049  -7853.590171     39.080598                    
V  2    389.218717   9984.993888  29205.765553       .038199                    
P  3 -20691.110272 -11719.154420 -12335.985199    182.722224                    
V  3  15574.647785  -1115.555378 -25116.545713       .716047                    
P  4   4587.483935  25588.309057   4377.034116    316.130484                    
V  4  -4979.629862  -4405.906903  31039.546865       .054203                    
P  5  19938.357461  -7348.807712  15614.199885    353.919820                    
V  5 -10262.411954  17767.795420  21324.566736       .085484                    
P  6  18930.153954  -8852.729197 -16235.219725    590.528147                    
V  6  20296.477670   6001.019510  20095.382508      -.056692                    
P  7  -5239.282604 -15892.077475 -20270.634807    521.689107                    
V  7  26491.954597   2816.382427  -8998.642850      -.049236                    
P  8  -2445.894789  23097.782361 -12616.202358    -81.111007                    
V  8  -6423.782927 -14752.041873 -26467.016019      -.013034                    
P  9  16599.547498   6060.757227  19335.509899     37.846290                    
V  9   7758.363092  24550.969674 -13704.288571       .015116                    
P 10  11255.980206   9938.702813 -22006.850826     90.282840                    
V 10 -19046.983738  20075.527947   -376.715429       .005293                    
P 11 -18050.104991  -1206.568930  19440.082226    352.374279                    
V 11  -9946.055019 -23057.290887 -10354.874512       .018915                    
P 13 -17746.358550   7902.214008 -18186.636244     98.074831                    
V 13 -21964.212652  -6369.527043  18798.249184       .034234                    
P 14   -215.410928 -14959.660765  22024.065489     -4.709388                    
V 14  27067.158684   5923.386682   4232.842136       .007983                    
P 15   2422.738250 -23745.009237 -11316.553992     -6.197930                    
V 15   6175.038001  13242.348897 -27206.559643      -.050055                    
P 16  -8029.441480 -13320.901086 -21440.430788     76.871008                    
V 16  18937.458260 -19828.553077   5326.624795       .034161                    
P 17   -357.048272  15402.927200  21638.783522     94.558005                    
V 17 -26920.830433  -5510.176619   3374.356402      -.010674                    
P 18  17670.797671 -19541.026654   1508.289685   -249.846989                    
V 18   3559.679821    986.549552 -31791.818275      -.008159                    
P 19 -25300.800048  -8067.725432  -1449.586261     19.253835                    
V 19   2648.362684  -2207.455647 -31581.002956       .032997                    
P 20 -20936.230003  10427.371031  12471.660844    -22.314151                    
V 20   8718.673636 -13640.420816  25883.982461       .001702                    
P 21   7810.799304 -18294.592075 -17243.885653     54.553720                    
V 21   8429.046112  20818.621717 -18721.913617       .017672                    
P 22   8201.826530 -21577.235522  13277.020996    137.487469                    
V 22  13415.628784 -10098.595627 -25025.905188       .028028                    
P 23 -25114.969360    991.325864  -8969.152722    138.180199                    
V 23 -10509.617001  -4416.922426  29046.982538       .002963                    
P 24    666.490145  25123.112110   8399.973727     39.315461                    
V 24  -5464.940084  -9345.570139  29403.419335       .030319                    
P 25 -10680.710094 -24219.353839   -251.546941    352.857666                    
V 25   2553.967168  -1972.889961  31733.449157       .200630                    
P 26  25260.362973   8579.514378  -3649.501408   -270.656984                    
V 26  -4234.730983    317.705063 -31605.694450      -.149976                    
P 27  -7641.411073  16375.116378 -18745.674141     69.942869                    
V 27 -10831.033653 -22833.703476 -15345.379379       .018469                    
P 28 -10843.453508  21947.375581  10147.485591     17.800695                    
V 28 -10568.080745   7330.026101 -28305.895343      -.009155                    
P 29  24211.746532   9222.839650  -6304.888331     -4.607010                    
V 29  -8384.805374    -21.890964 -30817.654773       .533565                    
P 30  19103.403150 -17710.823639   4553.922978     11.379256                    
V 30  -1372.337860   6914.757541  30759.427900       .011439                    
EOF
